{
  "type": "FeatureCollection",
  "features": [
    {
      "type": "Feature",
      "properties": {
        "norad_id": 66828,
        "name": "STARLINK-35982",
        "group": "last-30-days",
        "lat": -5.484803572052249,
        "lon": 173.11293931620642,
        "alt_km": 412.1302844442507,
        "timestamp": "2025-12-21T05:44:50.291849+00:00",
        "meta_object_name": "STARLINK-35982",
        "meta_object_id": "2025-280H",
        "meta_epoch": "2025-12-20T22:00:01.999584",
        "meta_mean_motion": 15.52467574,
        "meta_eccentricity": 0.00032412,
        "meta_inclination": 69.9994,
        "meta_ra_of_asc_node": 176.001,
        "meta_arg_of_pericenter": 274.5449,
        "meta_mean_anomaly": 76.2137,
        "meta_ephemeris_type": 0,
        "meta_classification_type": "U",
        "meta_norad_cat_id": 66828,
        "meta_element_set_no": 999,
        "meta_rev_at_epoch": 421,
        "meta_bstar": 0.0016339663,
        "meta_mean_motion_dot": 0.0010146,
        "meta_mean_motion_ddot": 0,
        "tle_line1": "1 66828U 25280H   25354.91668981  .00101460  00000+0  16340-2 0  9991",
        "tle_line2": "2 66828  69.9994 176.0010 0003241 274.5449  76.2137 15.52467574  4217"
      },
      "geometry": {
        "type": "Point",
        "coordinates": [
          173.11293931620642,
          -5.484803572052249
        ]
      }
    },
    {
      "type": "Feature",
      "properties": {
        "norad_id": 66829,
        "name": "STARLINK-36084",
        "group": "last-30-days",
        "lat": -7.380690369864261,
        "lon": 172.41646802201237,
        "alt_km": 412.27922846615184,
        "timestamp": "2025-12-21T05:44:50.291858+00:00",
        "meta_object_name": "STARLINK-36084",
        "meta_object_id": "2025-280J",
        "meta_epoch": "2025-12-20T22:00:01.999584",
        "meta_mean_motion": 15.52493245,
        "meta_eccentricity": 0.00029784,
        "meta_inclination": 69.9997,
        "meta_ra_of_asc_node": 176.0045,
        "meta_arg_of_pericenter": 274.5614,
        "meta_mean_anomaly": 74.1595,
        "meta_ephemeris_type": 0,
        "meta_classification_type": "U",
        "meta_norad_cat_id": 66829,
        "meta_element_set_no": 999,
        "meta_rev_at_epoch": 405,
        "meta_bstar": 0.0012693465,
        "meta_mean_motion_dot": 0.00078625,
        "meta_mean_motion_ddot": 0,
        "tle_line1": "1 66829U 25280J   25354.91668981  .00078625  00000+0  12693-2 0  9995",
        "tle_line2": "2 66829  69.9997 176.0045 0002978 274.5614  74.1595 15.52493245  4050"
      },
      "geometry": {
        "type": "Point",
        "coordinates": [
          172.41646802201237,
          -7.380690369864261
        ]
      }
    },
    {
      "type": "Feature",
      "properties": {
        "norad_id": 66830,
        "name": "STARLINK-35881",
        "group": "last-30-days",
        "lat": -3.685604541288271,
        "lon": 173.7712890175933,
        "alt_km": 412.0381917549612,
        "timestamp": "2025-12-21T05:44:50.291881+00:00",
        "meta_object_name": "STARLINK-35881",
        "meta_object_id": "2025-280K",
        "meta_epoch": "2025-12-20T22:00:01.999584",
        "meta_mean_motion": 15.52472911,
        "meta_eccentricity": 0.00030772,
        "meta_inclination": 69.9998,
        "meta_ra_of_asc_node": 175.9994,
        "meta_arg_of_pericenter": 274.1487,
        "meta_mean_anomaly": 78.5288,
        "meta_ephemeris_type": 0,
        "meta_classification_type": "U",
        "meta_norad_cat_id": 66830,
        "meta_element_set_no": 999,
        "meta_rev_at_epoch": 421,
        "meta_bstar": 0.0012957201,
        "meta_mean_motion_dot": 0.0008022,
        "meta_mean_motion_ddot": 0,
        "tle_line1": "1 66830U 25280K   25354.91668981  .00080220  00000+0  12957-2 0  9994",
        "tle_line2": "2 66830  69.9998 175.9994 0003077 274.1487  78.5288 15.52472911  4211"
      },
      "geometry": {
        "type": "Point",
        "coordinates": [
          173.7712890175933,
          -3.685604541288271
        ]
      }
    },
    {
      "type": "Feature",
      "properties": {
        "norad_id": 66831,
        "name": "STARLINK-35788",
        "group": "last-30-days",
        "lat": -1.884675416390772,
        "lon": 174.42634192339509,
        "alt_km": 411.9104419430296,
        "timestamp": "2025-12-21T05:44:50.291895+00:00",
        "meta_object_name": "STARLINK-35788",
        "meta_object_id": "2025-280L",
        "meta_epoch": "2025-12-20T22:00:01.999584",
        "meta_mean_motion": 15.52467661,
        "meta_eccentricity": 0.00031636,
        "meta_inclination": 69.9995,
        "meta_ra_of_asc_node": 175.9968,
        "meta_arg_of_pericenter": 272.9729,
        "meta_mean_anomaly": 81.6211,
        "meta_ephemeris_type": 0,
        "meta_classification_type": "U",
        "meta_norad_cat_id": 66831,
        "meta_element_set_no": 999,
        "meta_rev_at_epoch": 421,
        "meta_bstar": 0.001519575,
        "meta_mean_motion_dot": 0.00094258,
        "meta_mean_motion_ddot": 0,
        "tle_line1": "1 66831U 25280L   25354.91668981  .00094258  00000+0  15196-2 0  9999",
        "tle_line2": "2 66831  69.9995 175.9968 0003163 272.9729  81.6211 15.52467661  4218"
      },
      "geometry": {
        "type": "Point",
        "coordinates": [
          174.42634192339509,
          -1.884675416390772
        ]
      }
    },
    {
      "type": "Feature",
      "properties": {
        "norad_id": 66832,
        "name": "STARLINK-35768",
        "group": "last-30-days",
        "lat": -0.08083393993109003,
        "lon": 175.08154992362773,
        "alt_km": 411.73121954354974,
        "timestamp": "2025-12-21T05:44:50.291905+00:00",
        "meta_object_name": "STARLINK-35768",
        "meta_object_id": "2025-280M",
        "meta_epoch": "2025-12-20T22:00:01.999584",
        "meta_mean_motion": 15.5246951,
        "meta_eccentricity": 0.00032021,
        "meta_inclination": 69.9997,
        "meta_ra_of_asc_node": 175.9947,
        "meta_arg_of_pericenter": 273.7875,
        "meta_mean_anomaly": 82.727,
        "meta_ephemeris_type": 0,
        "meta_classification_type": "U",
        "meta_norad_cat_id": 66832,
        "meta_element_set_no": 999,
        "meta_rev_at_epoch": 421,
        "meta_bstar": 0.0013623494,
        "meta_mean_motion_dot": 0.00084389,
        "meta_mean_motion_ddot": 0,
        "tle_line1": "1 66832U 25280M   25354.91668981  .00084389  00000+0  13623-2 0  9997",
        "tle_line2": "2 66832  69.9997 175.9947 0003202 273.7875  82.7270 15.52469510  4215"
      },
      "geometry": {
        "type": "Point",
        "coordinates": [
          175.08154992362773,
          -0.08083393993109003
        ]
      }
    },
    {
      "type": "Feature",
      "properties": {
        "norad_id": 66833,
        "name": "STARLINK-35858",
        "group": "last-30-days",
        "lat": 1.7174263766771682,
        "lon": 175.73483669127725,
        "alt_km": 411.7259575396338,
        "timestamp": "2025-12-21T05:44:50.291915+00:00",
        "meta_object_name": "STARLINK-35858",
        "meta_object_id": "2025-280N",
        "meta_epoch": "2025-12-20T22:00:01.999584",
        "meta_mean_motion": 15.52473319,
        "meta_eccentricity": 0.00031987,
        "meta_inclination": 69.9996,
        "meta_ra_of_asc_node": 175.9928,
        "meta_arg_of_pericenter": 269.2051,
        "meta_mean_anomaly": 89.2179,
        "meta_ephemeris_type": 0,
        "meta_classification_type": "U",
        "meta_norad_cat_id": 66833,
        "meta_element_set_no": 999,
        "meta_rev_at_epoch": 421,
        "meta_bstar": 0.0013844664,
        "meta_mean_motion_dot": 0.00085789,
        "meta_mean_motion_ddot": 0,
        "tle_line1": "1 66833U 25280N   25354.91668981  .00085789  00000+0  13845-2 0  9999",
        "tle_line2": "2 66833  69.9996 175.9928 0003198 269.2051  89.2179 15.52473319  4216"
      },
      "geometry": {
        "type": "Point",
        "coordinates": [
          175.73483669127725,
          1.7174263766771682
        ]
      }
    },
    {
      "type": "Feature",
      "properties": {
        "norad_id": 66834,
        "name": "STARLINK-35840",
        "group": "last-30-days",
        "lat": 3.5132693378814706,
        "lon": 176.3877544096327,
        "alt_km": 411.5016977689056,
        "timestamp": "2025-12-21T05:44:50.291925+00:00",
        "meta_object_name": "STARLINK-35840",
        "meta_object_id": "2025-280P",
        "meta_epoch": "2025-12-20T22:00:01.999584",
        "meta_mean_motion": 15.5248113,
        "meta_eccentricity": 0.00031117,
        "meta_inclination": 69.9998,
        "meta_ra_of_asc_node": 175.9901,
        "meta_arg_of_pericenter": 270.3497,
        "meta_mean_anomaly": 89.9796,
        "meta_ephemeris_type": 0,
        "meta_classification_type": "U",
        "meta_norad_cat_id": 66834,
        "meta_element_set_no": 999,
        "meta_rev_at_epoch": 421,
        "meta_bstar": 0.0012374288,
        "meta_mean_motion_dot": 0.00076591,
        "meta_mean_motion_ddot": 0,
        "tle_line1": "1 66834U 25280P   25354.91668981  .00076591  00000+0  12374-2 0  9997",
        "tle_line2": "2 66834  69.9998 175.9901 0003111 270.3497  89.9796 15.52481130  4214"
      },
      "geometry": {
        "type": "Point",
        "coordinates": [
          176.3877544096327,
          3.5132693378814706
        ]
      }
    }
  ]
}